{"type": "FeatureCollection", "features": [ {"type": "Feature", "properties": {"norad_id": 39155, "name": "COSMOS 2485 (747)", "group": "glo-ops", "lat": 38.61875472074442, "lon": 101.72878104673248, "alt_km": 19187.096785380818, "timestamp": "2025-12-02T19:35:50.817029+00:00", "meta": {"OBJECT_NAME": "COSMOS 2485 (747)", "OBJECT_ID": "2013-019A", "EPOCH": "2025-11-24T07:30:54.982368", "MEAN_MOTION": 2.13103115, "ECCENTRICITY": 0.0024274, "INCLINATION": 65.3036, "RA_OF_ASC_NODE": 80.4871, "ARG_OF_PERICENTER": 228.0776, "MEAN_ANOMALY": 131.7167, "EPHEMERIS_TYPE": 0, "CLASSIFICATION_TYPE": "U", "NORAD_CAT_ID": 39155, "ELEMENT_SET_NO": 999, "REV_AT_EPOCH": 9791, "BSTAR": 0, "MEAN_MOTION_DOT": 1.2e-07, "MEAN_MOTION_DDOT": 0}, "tle": {"line1": "1 39155U 13019A   25328.31313637  .00000012  00000+0  00000+0 0  9995", "line2": "2 39155  65.3036  80.4871 0024274 228.0776 131.7167  2.13103115 97916"}}, "geometry": {"type": "Point", "coordinates": [101.72878104673248, 38.61875472074442]}}, {"type": "Feature", "properties": {"norad_id": 39620, "name": "COSMOS 2492 (754)", "group": "glo-ops", "lat": 61.59138585974266, "lon": 18.448052428327674, "alt_km": 19143.572202203308, "timestamp": "2025-12-02T19:35:50.817040+00:00", "meta": {"OBJECT_NAME": "COSMOS 2492 (754)", "OBJECT_ID": "2014-012A", "EPOCH": "2025-12-02T05:58:46.596288", "MEAN_MOTION": 2.1310308, "ECCENTRICITY": 0.0014162, "INCLINATION": 65.4137, "RA_OF_ASC_NODE": 320.6266, "ARG_OF_PERICENTER": 310.9427, "MEAN_ANOMALY": 48.9426, "EPHEMERIS_TYPE": 0, "CLASSIFICATION_TYPE": "U", "NORAD_CAT_ID": 39620, "ELEMENT_SET_NO": 999, "REV_AT_EPOCH": 9104, "BSTAR": 0, "MEAN_MOTION_DOT": -3.3e-07, "MEAN_MOTION_DDOT": 0}, "tle": {"line1": "1 39620U 14012A   25336.24915042 -.00000033  00000+0  00000+0 0  9999", "line2": "2 39620  65.4137 320.6266 0014162 310.9427  48.9426  2.13103080 91048"}}, "geometry": {"type": "Point", "coordinates": [18.448052428327674, 61.59138585974266]}}, {"type": "Feature", "properties": {"norad_id": 40001, "name": "COSMOS 2500 (755)", "group": "glo-ops", "lat": -49.547702217186455, "lon": -72.23015690263587, "alt_km": 19133.110564980154, "timestamp": "2025-12-02T19:35:50.817052+00:00", "meta": {"OBJECT_NAME": "COSMOS 2500 (755)", "OBJECT_ID": "2014-032A", "EPOCH": "2025-12-01T22:51:13.641408", "MEAN_MOTION": 2.13105853, "ECCENTRICITY": 0.00082978, "INCLINATION": 65.3495, "RA_OF_ASC_NODE": 320.3998, "ARG_OF_PERICENTER": 219.081, "MEAN_ANOMALY": 140.8682, "EPHEMERIS_TYPE": 0, "CLASSIFICATION_TYPE": "U", "NORAD_CAT_ID": 40001, "ELEMENT_SET_NO": 999, "REV_AT_EPOCH": 8925, "BSTAR": 0, "MEAN_MOTION_DOT": -3.1e-07, "MEAN_MOTION_DDOT": 0}, "tle": {"line1": "1 40001U 14032A   25335.95224122 -.00000031  00000+0  00000+0 0  9993", "line2": "2 40001  65.3495 320.3998 0008297 219.0810 140.8682  2.13105853 89251"}}, "geometry": {"type": "Point", "coordinates": [-72.23015690263587, -49.547702217186455]}}, {"type": "Feature", "properties": {"norad_id": 40315, "name": "COSMOS 2501 (702K)", "group": "glo-ops", "lat": 60.52851611279796, "lon": -44.24511752447167, "alt_km": 19133.279258157734, "timestamp": "2025-12-02T19:35:50.817063+00:00", "meta": {"OBJECT_NAME": "COSMOS 2501 (702K)", "OBJECT_ID": "2014-075A", "EPOCH": "2025-11-30T19:17:52.497312", "MEAN_MOTION": 2.13101305, "ECCENTRICITY": 0.00201676, "INCLINATION": 63.6137, "RA_OF_ASC_NODE": 197.2386, "ARG_OF_PERICENTER": 204.7979, "MEAN_ANOMALY": 155.1955, "EPHEMERIS_TYPE": 0, "CLASSIFICATION_TYPE": "U", "NORAD_CAT_ID": 40315, "ELEMENT_SET_NO": 999, "REV_AT_EPOCH": 8562, "BSTAR": 0, "MEAN_MOTION_DOT": 1e-06, "MEAN_MOTION_DDOT": 0}, "tle": {"line1": "1 40315U 14075A   25334.80407983  .00000100  00000+0  00000+0 0  9995", "line2": "2 40315  63.6137 197.2386 0020167 204.7979 155.1955  2.13101305 85629"}}, "geometry": {"type": "Point", "coordinates": [-44.24511752447167, 60.52851611279796]}}, {"type": "Feature", "properties": {"norad_id": 41330, "name": "COSMOS 2514 (751)", "group": "glo-ops", "lat": 54.60421410343043, "lon": 98.99658427664727, "alt_km": 19131.361427991986, "timestamp": "2025-12-02T19:35:50.817074+00:00", "meta": {"OBJECT_NAME": "COSMOS 2514 (751)", "OBJECT_ID": "2016-008A", "EPOCH": "2025-12-02T04:41:58.161120", "MEAN_MOTION": 2.13102491, "ECCENTRICITY": 0.0012493, "INCLINATION": 65.1398, "RA_OF_ASC_NODE": 319.7653, "ARG_OF_PERICENTER": 219.8518, "MEAN_ANOMALY": 140.0636, "EPHEMERIS_TYPE": 0, "CLASSIFICATION_TYPE": "U", "NORAD_CAT_ID": 41330, "ELEMENT_SET_NO": 999, "REV_AT_EPOCH": 7642, "BSTAR": 0, "MEAN_MOTION_DOT": -3.3e-07, "MEAN_MOTION_DDOT": 0}, "tle": {"line1": "1 41330U 16008A   25336.19581205 -.00000033  00000+0  00000+0 0  9991", "line2": "2 41330  65.1398 319.7653 0012493 219.8518 140.0636  2.13102491 76424"}}, "geometry": {"type": "Point", "coordinates": [98.99658427664727, 54.60421410343043]}}, {"type": "Feature", "properties": {"norad_id": 42939, "name": "COSMOS 2522 (752)", "group": "glo-ops", "lat": -51.27815317082682, "lon": 55.89924224370103, "alt_km": 19119.50872711752, "timestamp": "2025-12-02T19:35:50.817085+00:00", "meta": {"OBJECT_NAME": "COSMOS 2522 (752)", "OBJECT_ID": "2017-055A", "EPOCH": "2025-12-02T00:49:19.068672", "MEAN_MOTION": 2.13101864, "ECCENTRICITY": 0.0006552, "INCLINATION": 64.0757, "RA_OF_ASC_NODE": 198.5937, "ARG_OF_PERICENTER": 226.1322, "MEAN_ANOMALY": 133.9083, "EPHEMERIS_TYPE": 0, "CLASSIFICATION_TYPE": "U", "NORAD_CAT_ID": 42939, "ELEMENT_SET_NO": 999, "REV_AT_EPOCH": 6377, "BSTAR": 0, "MEAN_MOTION_DOT": 1.06e-06, "MEAN_MOTION_DDOT": 0}, "tle": {"line1": "1 42939U 17055A   25336.03424848  .00000106  00000+0  00000+0 0  9992", "line2": "2 42939  64.0757 198.5937 0006552 226.1322 133.9083  2.13101864 63772"}}, "geometry": {"type": "Point", "coordinates": [55.89924224370103, -51.27815317082682]}}, {"type": "Feature", "properties": {"norad_id": 43508, "name": "COSMOS 2527 (756)", "group": "glo-ops", "lat": -65.48260300217818, "lon": -8.6845967733488, "alt_km": 19121.39329079599, "timestamp": "2025-12-02T19:35:50.817105+00:00", "meta": {"OBJECT_NAME": "COSMOS 2527 (756)", "OBJECT_ID": "2018-053A", "EPOCH": "2025-12-02T11:08:26.615616", "MEAN_MOTION": 2.13102038, "ECCENTRICITY": 0.0008635, "INCLINATION": 65.467, "RA_OF_ASC_NODE": 80.4752, "ARG_OF_PERICENTER": 223.9095, "MEAN_ANOMALY": 136.0181, "EPHEMERIS_TYPE": 0, "CLASSIFICATION_TYPE": "U", "NORAD_CAT_ID": 43508, "ELEMENT_SET_NO": 999, "REV_AT_EPOCH": 5808, "BSTAR": 0, "MEAN_MOTION_DOT": -1.9e-07, "MEAN_MOTION_DDOT": 0}, "tle": {"line1": "1 43508U 18053A   25336.46419694 -.00000019  00000+0  00000+0 0  9998", "line2": "2 43508  65.4670  80.4752 0008635 223.9095 136.0181  2.13102038 58089"}}, "geometry": {"type": "Point", "coordinates": [-8.6845967733488, -65.48260300217818]}}, {"type": "Feature", "properties": {"norad_id": 43687, "name": "COSMOS 2529 (757)", "group": "glo-ops", "lat": -13.855106588513534, "lon": 26.04674963080696, "alt_km": 19122.573679951547, "timestamp": "2025-12-02T19:35:50.817117+00:00", "meta": {"OBJECT_NAME": "COSMOS 2529 (757)", "OBJECT_ID": "2018-086A", "EPOCH": "2025-12-02T02:13:08.231232", "MEAN_MOTION": 2.13101888, "ECCENTRICITY": 0.0007319, "INCLINATION": 64.2916, "RA_OF_ASC_NODE": 199.2482, "ARG_OF_PERICENTER": 254.4922, "MEAN_ANOMALY": 105.5219, "EPHEMERIS_TYPE": 0, "CLASSIFICATION_TYPE": "U", "NORAD_CAT_ID": 43687, "ELEMENT_SET_NO": 999, "REV_AT_EPOCH": 5508, "BSTAR": 0, "MEAN_MOTION_DOT": 1.05e-06, "MEAN_MOTION_DDOT": 0}, "tle": {"line1": "1 43687U 18086A   25336.09245638  .00000105  00000+0  00000+0 0  9991", "line2": "2 43687  64.2916 199.2482 0007319 254.4922 105.5219  2.13101888 55084"}}, "geometry": {"type": "Point", "coordinates": [26.04674963080696, -13.855106588513534]}}, {"type": "Feature", "properties": {"norad_id": 44299, "name": "COSMOS 2534 (758)", "group": "glo-ops", "lat": -26.861732438304756, "lon": -174.8398017677922, "alt_km": 19117.648128402772, "timestamp": "2025-12-02T19:35:50.817128+00:00", "meta": {"OBJECT_NAME": "COSMOS 2534 (758)", "OBJECT_ID": "2019-030A", "EPOCH": "2025-12-01T03:07:57.438624", "MEAN_MOTION": 2.1310195, "ECCENTRICITY": 0.00091167, "INCLINATION": 64.3652, "RA_OF_ASC_NODE": 199.2842, "ARG_OF_PERICENTER": 283.4428, "MEAN_ANOMALY": 193.0266, "EPHEMERIS_TYPE": 0, "CLASSIFICATION_TYPE": "U", "NORAD_CAT_ID": 44299, "ELEMENT_SET_NO": 999, "REV_AT_EPOCH": 5070, "BSTAR": 0, "MEAN_MOTION_DOT": 9.9e-07, "MEAN_MOTION_DDOT": 0}, "tle": {"line1": "1 44299U 19030A   25335.13052591  .00000099  00000+0  00000+0 0  9991", "line2": "2 44299  64.3652 199.2842 0009116 283.4428 193.0266  2.13101950 50700"}}, "geometry": {"type": "Point", "coordinates": [-174.8398017677922, -26.861732438304756]}}, {"type": "Feature", "properties": {"norad_id": 44850, "name": "COSMOS 2544 (759)", "group": "glo-ops", "lat": -41.820078039516545, "lon": 56.19250790998902, "alt_km": 19119.852390310436, "timestamp": "2025-12-02T19:35:50.817140+00:00", "meta": {"OBJECT_NAME": "COSMOS 2544 (759)", "OBJECT_ID": "2019-088A", "EPOCH": "2025-12-02T09:48:35.343360", "MEAN_MOTION": 2.13101818, "ECCENTRICITY": 0.0013669, "INCLINATION": 65.4544, "RA_OF_ASC_NODE": 80.304, "ARG_OF_PERICENTER": 248.8168, "MEAN_ANOMALY": 111.0338, "EPHEMERIS_TYPE": 0, "CLASSIFICATION_TYPE": "U", "NORAD_CAT_ID": 44850, "ELEMENT_SET_NO": 999, "REV_AT_EPOCH": 4652, "BSTAR": 0, "MEAN_MOTION_DOT": -1.9e-07, "MEAN_MOTION_DDOT": 0}, "tle": {"line1": "1 44850U 19088A   25336.40874240 -.00000019  00000+0  00000+0 0  9994", "line2": "2 44850  65.4544  80.3040 0013669 248.8168 111.0338  2.13101818 46527"}}, "geometry": {"type": "Point", "coordinates": [56.19250790998902, -41.820078039516545]}}]}